NORAD_CAT_ID,OBJECT_NAME,OBJECT_TYPE,EPOCH,MEAN_MOTION,ECCENTRICITY,INCLINATION,RA_OF_ASC_NODE,ARG_OF_PERICENTER,MEAN_ANOMALY,BSTAR,MEAN_MOTION_DOT,MEAN_MOTION_DDOT,TLE_LINE0,TLE_LINE1,TLE_LINE2,SEMIMAJOR_AXIS,PERIOD,APOGEE,PERIGEE,DECAYED
51751.0,STARLINK-3506,PAYLOAD,2023-01-09 08:27:43,15.0884771,0.0002831,53.2153,95.6394,21.1249,338.9859,0.00037663,5.712e-05,0.0,0 STARLINK-3506,1 51751U 22016AP  23009.35258197  .00005712  00000-0  37663-3 0  9997,2 51751  53.2153  95.6394 0002831  21.1249 338.9859 15.08847710 49288,6917.857,95.437,541.68,537.763,0.0
51751.0,STARLINK-3506,PAYLOAD,2023-01-09 14:49:15,15.08848641,0.000288,53.2152,94.4501,21.5849,338.5264,0.00031982,4.807e-05,0.0,0 STARLINK-3506,1 51751U 22016AP  23009.61754106  .00004807  00000-0  31982-3 0  9999,2 51751  53.2152  94.4501 0002880  21.5849 338.5264 15.08848641 49323,6917.854,95.437,541.711,537.727,0.0
51751.0,STARLINK-3506,PAYLOAD,2023-01-10 08:18:30,15.08834774,0.0002931,53.2149,91.1784,24.3699,335.7431,-8.5621e-05,-1.651e-05,0.0,0 STARLINK-3506,1 51751U 22016AP  23010.34618473 -.00001651  00000-0 -85621-4 0  9993,2 51751  53.2149  91.1784 0002931  24.3699 335.7431 15.08834774 50540,6917.896,95.438,541.789,537.734,0.0
51751.0,STARLINK-3506,PAYLOAD,2023-01-10 11:29:16,15.088362,0.0002947,53.2154,90.5834,24.466,335.6472,-1.3214e-06,-3.1e-06,0.0,0 STARLINK-3506,1 51751U 22016AP  23010.47866665 -.00000310  00000-0 -13214-5 0  9996,2 51751  53.2154  90.5834 0002947  24.4660 335.6472 15.08836200 49459,6917.892,95.438,541.7959999999998,537.7180000000002,0.0
51751.0,STARLINK-3506,PAYLOAD,2023-01-10 14:40:02,15.08838424,0.0002952,53.2155,89.9886,24.4976,335.6155,-1.5672e-06,-3.14e-06,0.0,0 STARLINK-3506,1 51751U 22016AP  23010.61114540 -.00000314  00000-0 -15672-5 0  9994,2 51751  53.2155  89.9886 0002952  24.4976 335.6155 15.08838424 49475,6917.885,95.438,541.7919999999998,537.7080000000002,0.0
51751.0,STARLINK-3506,PAYLOAD,2023-01-11 00:12:21,15.08849781,0.0002969,53.2164,88.2047,24.411,335.7023,0.00012236,1.66e-05,0.0,0 STARLINK-3506,1 51751U 22016AP  23011.00857856  .00001660  00000-0  12236-3 0  9996,2 51751  53.2164  88.2047 0002969  24.4110 335.7023 15.08849781 50648,6917.85,95.437,541.769,537.6619999999998,0.0
51751.0,STARLINK-3506,PAYLOAD,2023-01-11 11:20:02,15.08848843,0.000289,53.216,86.1221,28.298,331.8168,0.00021083,3.069e-05,0.0,0 STARLINK-3506,1 51751U 22016AP  23011.47225602  .00003069  00000-0  21083-3 0  9990,2 51751  53.2160  86.1221 0002890  28.2980 331.8168 15.08848843 49604,6917.853,95.437,541.7180000000002,537.719,0.0
51751.0,STARLINK-3506,PAYLOAD,2023-01-12 11:10:49,15.08846741,0.0003143999999999,53.2148,81.6622,26.0775,334.0375,0.00012033,1.627e-05,0.0,0 STARLINK-3506,1 51751U 22016AP  23012.46585528  .00001627  00000-0  12033-3 0  9999,2 51751  53.2148  81.6622 0003144  26.0775 334.0375 15.08846741 50866,6917.86,95.437,541.9,537.55,0.0
51751.0,STARLINK-3506,PAYLOAD,2023-01-13 14:12:24,15.08833376,0.0002965,53.2146,76.60600000000001,24.6131,335.5002,-9.11e-05,-1.738e-05,0.0,0 STARLINK-3506,1 51751U 22016AP  23013.59194983 -.00001738  00000-0 -91100-4 0  9993,2 51751  53.2146  76.6060 0002965  24.6131 335.5002 15.08833376 51037,6917.901,95.438,541.817,537.714,0.0
51751.0,STARLINK-3506,PAYLOAD,2023-01-13 20:33:57,15.08830023,0.0003054,53.2141,75.4152,23.9214,336.19199999999995,-8.3435e-05,-1.616e-05,0.0,0 STARLINK-3506,1 51751U 22016AP  23013.85691305 -.00001616  00000-0 -83435-4 0  9999,2 51751  53.2141  75.4152 0003054  23.9214 336.1920 15.08830023 49966,6917.911,95.438,541.889,537.663,0.0
51751.0,STARLINK-3506,PAYLOAD,2023-01-14 20:24:44,15.08833234,0.0002856999999999,53.2149,70.9588,26.0607,334.0529,0.00010033,1.308e-05,0.0,0 STARLINK-3506,1 51751U 22016AP  23014.85051700  .00001308  00000-0  10033-3 0  9998,2 51751  53.2149  70.9588 0002857  26.0607 334.0529 15.08833234 51228,6917.901,95.438,541.743,537.79,0.0
51751.0,STARLINK-3506,PAYLOAD,2023-01-15 02:46:18,15.08822254,0.0002726,53.2156,69.76899999999999,33.1987,326.9176,-3.2346e-05,-8.03e-06,0.0,0 STARLINK-3506,1 51751U 22016AP  23015.11548787 -.00000803  00000-0 -32346-4 0  9997,2 51751  53.2156  69.7690 0002726  33.1987 326.9176 15.08822254 51263,6917.935,95.439,541.685,537.914,0.0
51751.0,STARLINK-3506,PAYLOAD,2023-01-15 10:43:13,15.08838401,0.0002939,53.2158,68.2787,29.0769,331.0386,0.00020016,2.898e-05,0.0,0 STARLINK-3506,1 51751U 22016AP  23015.44668115  .00002898  00000-0  20016-3 0  9995,2 51751  53.2158  68.2787 0002939  29.0769 331.0386 15.08838401 51311,6917.885,95.438,541.783,537.717,0.0
51751.0,STARLINK-3506,PAYLOAD,2023-01-15 13:53:59,15.08846395,0.000264,53.2152,67.6856,35.0903,325.0262,0.00029788,4.457e-05,0.0,0 STARLINK-3506,1 51751U 22016AP  23015.57915718  .00004457  00000-0  29788-3 0  9991,2 51751  53.2152  67.6856 0002640  35.0903 325.0262 15.08846395 50227,6917.861,95.437,541.552,537.9,0.0
51751.0,STARLINK-3506,PAYLOAD,2023-01-15 20:15:32,15.08841732,0.0002555,53.2166,66.495,31.9051,328.2095,0.0002301,3.376e-05,0.0,0 STARLINK-3506,1 51751U 22016AP  23015.84412076  .00003376  00000-0  23010-3 0  9991,2 51751  53.2166  66.4950 0002555  31.9051 328.2095 15.08841732 50261,6917.875,95.437,541.508,537.9730000000001,0.0
51751.0,STARLINK-3506,PAYLOAD,2023-01-16 12:09:22,15.08863228,0.000247,53.2151,63.5227,39.2183,320.8988,0.00050229,7.72e-05,0.0,0 STARLINK-3506,1 51751U 22016AP  23016.50651167  .00007720  00000-0  50229-3 0  9990,2 51751  53.2151  63.5227 0002470  39.2183 320.8988 15.08863228 51470,6917.809,95.436,541.383,537.966,0.0
51751.0,STARLINK-3506,PAYLOAD,2023-01-16 20:06:19,15.08830167,0.0002169,53.2159,62.0364,42.5747,317.5413,-0.000127,-2.308e-05,0.0,0 STARLINK-3506,1 51751U 22016AP  23016.83772413 -.00002308  00000-0 -12700-3 0  9995,2 51751  53.2159  62.0364 0002169  42.5747 317.5413 15.08830167 51520,6917.91,95.438,541.276,538.275,0.0
51751.0,STARLINK-3506,PAYLOAD,2023-01-17 02:27:53,15.08804688,0.0002031,53.2169,60.8465,45.7849,314.331,-0.00050594,-8.324e-05,0.0,0 STARLINK-3506,1 51751U 22016AP  23017.10269760 -.00008324  00000-0 -50594-3 0  9999,2 51751  53.2169  60.8465 0002031  45.7849 314.3310 15.08804688 51569,6917.988,95.44,541.258,538.448,0.0
51751.0,STARLINK-3506,PAYLOAD,2023-01-17 12:00:12,15.08813428,0.0002411,53.2144,59.06399999999999,53.2218,306.8995,-0.00028994,-4.897e-05,0.0,0 STARLINK-3506,1 51751U 22016AP  23017.50014139 -.00004897  00000-0 -28994-3 0  9991,2 51751  53.2144  59.0640 0002411  53.2218 306.8995 15.08813428 51627,6917.962,95.439,541.495,538.159,0.0
51751.0,STARLINK-3506,PAYLOAD,2023-01-18 08:40:12,15.08859274,0.0002091,53.2153,55.1963,54.5346,305.5841,0.001029,0.00016135,0.0,0 STARLINK-3506,1 51751U 22016AP  23018.36125557  .00016135  00000-0  10290-2 0  9998,2 51751  53.2153  55.1963 0002091  54.5346 305.5841 15.08859274 51751,6917.821,95.436,541.133,538.24,0.0
51751.0,STARLINK-3506,PAYLOAD,2023-01-18 19:47:54,15.08861798,0.0002073999999999,53.2155,53.1146,62.3156,297.8046,0.00056552,8.729e-05,0.0,0 STARLINK-3506,1 51751U 22016AP  23018.82493447  .00008729  00000-0  56552-3 0  9997,2 51751  53.2155  53.1146 0002074  62.3156 297.8046 15.08861798 51823,6917.814,95.436,541.114,538.244,0.0
51751.0,STARLINK-3506,PAYLOAD,2023-01-19 02:09:26,15.08856601,0.0001972,53.2153,51.9252,65.1322,294.9875,0.00074915,0.0001165999999999,0.0,0 STARLINK-3506,1 51751U 22016AP  23019.08989582  .00011660  00000-0  74915-3 0  9997,2 51751  53.2153  51.9252 0001972  65.1322 294.9875 15.08856601 51866,6917.83,95.437,541.059,538.33,0.0
51751.0,STARLINK-3506,PAYLOAD,2023-01-19 08:30:58,15.08868171,0.0001908,53.2156,50.7357,65.6742,294.4449,0.00077416,0.00012064,0.0,0 STARLINK-3506,1 51751U 22016AP  23019.35484796  .00012064  00000-0  77416-3 0  9992,2 51751  53.2156  50.7357 0001908  65.6742 294.4449 15.08868171 50790,6917.794,95.436,540.979,538.339,0.0
51751.0,STARLINK-3506,PAYLOAD,2023-01-20 02:00:13,15.08858006,0.0001604,53.2162,47.465,71.7441,288.3726,0.0016769,0.00026514,0.0,0 STARLINK-3506,1 51751U 22016AP  23020.08349114  .00026514  00000-0  16769-2 0  9996,2 51751  53.2162  47.4650 0001604  71.7441 288.3726 15.08858006 52016,6917.825,95.436,540.8,538.581,0.0
51751.0,STARLINK-3506,PAYLOAD,2023-01-20 11:32:32,15.08848925,0.0001779,53.2158,45.6803,74.6602,285.4587,0.0011035,0.00017322,0.0,0 STARLINK-3506,1 51751U 22016AP  23020.48093052  .00017322  00000-0  11035-2 0  9995,2 51751  53.2158  45.6803 0001779  74.6602 285.4587 15.08848925 52073,6917.853,95.437,540.9490000000001,538.487,0.0
51751.0,STARLINK-3506,PAYLOAD,2023-01-21 06:37:10,15.08852632,0.0001979,53.2161,42.112,93.5357,266.5861,0.0012615,0.00019853,0.0,0 STARLINK-3506,1 51751U 22016AP  23021.27581170  .00019853  00000-0  12615-2 0  9992,2 51751  53.2161  42.1120 0001979  93.5357 266.5861 15.08852632 52198,6917.842,95.437,541.076,538.3380000000001,0.0
51751.0,STARLINK-3506,PAYLOAD,2023-01-22 04:52:33,15.0886007,0.0001749,53.2158,37.9481,109.9916,250.1265,0.0015382,0.00024291,0.0,0 STARLINK-3506,1 51751U 22016AP  23022.20316925  .00024291  00000-0  15382-2 0  9996,2 51751  53.2158  37.9481 0001749 109.9916 250.1265 15.08860070 52332,6917.819,95.436,540.894,538.474,0.0
51751.0,STARLINK-3506,PAYLOAD,2023-01-22 17:35:39,15.08841484,0.000159,53.2159,35.5664,81.0799,279.0373,0.0013062,0.00020562,0.0,0 STARLINK-3506,1 51751U 22016AP  23022.73309206  .00020562  00000-0  13062-2 0  9998,2 51751  53.2159  35.5664 0001590  81.0799 279.0373 15.08841484 52410,6917.876,95.437,540.841,538.641,0.0
51751.0,STARLINK-3506,PAYLOAD,2023-01-23 01:32:35,15.088202,0.0001626,53.216,34.0839,109.8178,250.2989,0.00077685,0.00012091,0.0,0 STARLINK-3506,1 51751U 22016AP  23023.06429688  .00012091  00000-0  77685-3 0  9992,2 51751  53.2160  34.0839 0001626 109.8178 250.2989 15.08820200 52462,6917.941,95.439,540.931,538.681,0.0
